_id;Name;Nome;Beschreibung;Descrizione;Kategorie;Categoria;Adresse;Telefonnummer;Email;Webseite(n);Öffnungszeiten;Tags;KAUZ Tags;longitude;latitude
681a89d2c8c64552e950b2aa;Alois-Pupp-Park;Giardini Alois Pupp;Der einzige Brixner Park mit 'PPP'. Vorwiegend Public. Private für Raucher:innen. Partnerships wurden unter den alten Bäumen sowohl begonnen als auch beendet. Manchmal künstlerisch beleuchtet, sonst ein zentral gelegener Ort mit Bänken, Brunnen und Spielplatz – perfekt zum Verweilen.;L'unico parco di Bressanone con 'PPP'. Principalmente pubblico. Privato per fumatrici e fumatori. Per i partner: tra i vecchi alberi sono nate e finite molte relazioni. A volte è illuminato artisticamente, ma, di solito, con le sue panchine, il parco giochi e la fontana, offre un angolo tranquillo per rilassarsi nel pieno centro della città.;GEMÜTLICH GRÜN;VERDE VIVIBILE;;;;;;;;1.165.799;4.671.779
681a89d2c8c64552e950b297;Astra / Kulturzentrum;Astra / Centro culturale;Was einmal ein Raum zur Ertüchtigung der Jugend unter dem faschistischen Regime war, ist heute ein freier Kulturraum. Das Astra ist Veranstaltungslocation für verschiedenste Formate: Hier finden Filmvorführungen, Konzerte, Vorträge, Feste und ganz viel mehr statt.;Quello che una volta sotto il regime fascista era un luogo d'indottrinamento della gioventù, oggi è uno spazio libero dedicato alla cultura. L'Astra è una location polifunzionale che ospita eventi di ogni tipo: proiezioni di film, concerti, conferenze, feste e molto altro.;BÜHNEN BILDER BÜCHER;PALCHI PITTURA PAROLE;Romstrasse 11;39 0472 275577;info@astrabx.com;https://astrabx.com/;;;;1.164.979;4.671.646
;Autofreie Stadt;Città senza automobili;An den Stadteinfahrten stellen wir den Motor ab und bewegen uns zu Fuß, mit dem Fahrrad, den kostenlosen Stadtbussen oder auf einem Dinosaurier-Rücken fort. Aufatmen in Südtirols erster autofreier Stadt!;Spegniamo il motore all'ingresso della città e muoviamoci a piedi, in bici, con gli autobus gratuiti o sul dorso di un dinosauro. Respiriamo a fondo e godiamoci la prima città libera dalle automobili dell'Alto Adige!;WÜNSCHEN WIRKT WUNDER;SOGNI E SPERANZE;;;;;;;;;
681a89d2c8c64552e950b2b3;b*coop / Genossenschaft Brixen;b*coop / Cooperativa Bressanone;Eine neue Wirtschaftsweise gesucht? Hier wird sie gefunden! Kooperation im Sinn und ein Stück näher an der Utopie: ob Gemüsegarten oder Wohnen, vom Inkubator neuer Ideen bis zum gemütlichen Gemeinschaftstreffpunkt. Bring deine Idee, b*creative, b*cooperative!;In cerca di un'economia alternativa? Siete nel posto giusto! Al centro c'è la cooperazione, che si avvicina un po' anche all'utopia. Che si tratti di un orto, di un'abitazione, di un incubatore di nuove idee o di un accogliente luogo d'incontro, porta la tua idea: b*creative, b*cooperative!;BÜRGER:IN BEWEGUNG;CITTADINANZA CRITICA;Domplatz 15, Brixen;39 3468864988;info@bcoop.bz;B*COOP - Genossenschaft Brixen - Cooperativa Bressanone (bcoop.bz);;;;116.566;4.671.648
681a89d2c8c64552e950b2b5;b*space / Genossenschaft Brixen;b*space / Genossenschaft Brixen;Coworking space,Einzelschreibtische[NEWLINE][NEWLINE]Stundenmiete: Freiwillige Spende (unsere Kosten sind 5 Euro).[NEWLINE][NEWLINE]Monatsmiete: 100 Euro pro Monat. Mitglieder sind mehrwertsteuerbefreit. Inklusive Schlüssel.[NEWLINE][NEWLINE]Besprechungsbereich[NEWLINE][NEWLINE]Stundenmiete: Freiwillige Spende (10 Euro/Stunde als Richtspende). Bei wiederkehrender Veranstaltung: inklusive Schlüssel.;;unbekannt;;Domplatz 15, Brixen;39 3468864988;info@bcoop.bz;B*COOP - Genossenschaft Brixen - Cooperativa Bressanone (bcoop.bz);;;;116.566;4.671.648
681a89d2c8c64552e950b298;B*Vico;;Bietet biologische, naturnahe Produkte zu fairen Preisen von Bäuerinnen und Bauern aus der Umgebung direkt in Brixen an.;;unbekannt;;Abholpunkt Gärtnerei Elefant: Brennerstrasse 11;349 289 5233;bvico@bcoop.bz;https://bvico.bcoop.bz/#:~:text=b*vico%20bietet%20biologische%2C%20naturnahe,Uhr%20in%20der%20G%C3%A4rtnerei%20Elefant.;Bestellung bis Dienstagabend, Selbstabholung am Freitag zwischen 16 und 19 Uhr in der Gärtnerei Elefant.;;;116.485;4.672.431
681a89d2c8c64552e950b299;Bauernmarkt;;Verkauf von lokalen landwirtschaftlichen Produkten.;;unbekannt;;Hartmannsplatz;;;;Mo, Mi, Sa 7.30 - 13.00;;;1.165.199;4.671.702
;Beratungsstelle;Consultorio;Beratung für Frauen in Gewaltsituationen. Beratung für Frauen, die körperliche, psychische, sexualisierte und/oder ökonomische Gewalt erfahren haben, noch erleben oder davon bedroht sind und sich davor schützen möchten.;Consulenza per donne in situazioni di violenza. Consulenza per donne che vivono situazioni di violenza fisica, psicologica, sessuale e/o economica, o che ne sono minacciate e hanno bisogno di protezione.;HELFENDE HÄNDE;AIUTO ATTIVO;;;;;;;;;
;Bibliotheken;Biblioteche;Mit dem Aufblättern des ersten Bilderbuchs eintauchen in eine nie endende Leidenschaft: von der Jugend- und Spielabteilung über den täglichen Zeitschriftensaal bis zu den hohen Regalen mit den wissenschaftlichen Werken. Fachbibliothek Eine Welt, Stadt-, Universitäts- und Seminarbibliothek machen es möglich.;Sfogliando il primo libro illustrato, immergetevi in una passione che non vi abbandonerà mai: dal reparto giovani e giochi, attraverso la sala dei giornali quotidiani, fino agli alti scaffali delle opere accademiche. Le biblioteche Un Solo Mondo, Civica, Universitaria e del Seminario Maggiore rendono possibile tutto ciò.;BÜHNEN BILDER BÜCHER;PALCHI PITTURA PAROLE;;;;;;;;;
681a89d2c8c64552e950b2a4;Biofest(a);;Alternaives Erntedankfest, traditioneller Bio-Bauernmarkt für Direktvermarkter und Ab-Hof-Verkäufer;;unbekannt;;Hartmannsplatz;;;"Veranstaltungen Brixen - Alle Events in Brixen und seinen Feriendörfern Brixen Tourismus; https://bioinsuedtirol.it/de/news/biofesta-in-brixen/";1. Sonntag im Oktober;;;1.165.199;4.671.702
681a89d2c8c64552e950b282;Biotop Millander Au;;Biotop, Birdwatching, Fröschelauschen;;unbekannt;;Linker Eisackdamm;;;http://biodiversitaet.bz.it/tag/millander-au/;;;;116.517;4.670.049
;Boccia;Bocce;Von Jung bis Junggeblieben – im Club Anziani Millan Seniorenclub treffen sich Boccia-Begeisterte von 0 bis 99+. Ob Großeltern mit ihren Enkel:innen oder neugierige Neulinge: Am Dienstagnachmittag und Samstag rollen die Kugeln, und die Stimmung ist bestens!;Da ragazzi giovani a chi è rimasto giovane nel cuore: al Club Anziani Millan Seniorenclub si ritrovano gli appassionati di bocce dagli 0 agli over 99. Che siano nonni con i loro nipotini o principianti curiosi, il martedì pomeriggio e il sabato le bocce rotolano e l'atmosfera è spaziale!;SPIELEN SPRECHEN SPEISEN;SERATE IN SOCIETÀ;;;;;;;;;
;Campill / Freizeitpark ;Campill / Parco ricreativo;Die Sonne scheint und zu Hause plagen dich Strandsehnsucht und Couchflucht? Schwing dich aufs Rad und ab die Füße in den Sand des Volleyballplatzes! Doch aufgepasst, dass dein Aufschlag nicht im Basketballfeld, Calisthenics-Park, Bolzplatz oder Kinderspielplatz landet.;Fuori splende il sole risvegliando la nostalgia della spiaggia e la voglia di scappare dal divano? Salta in sella alla tua bici e corri a infilare i piedi nella sabbia del campo da pallavolo! Ma fai attenzione che la tua battuta non finisca nel campo da basket, da calcio, nell'area calisthenics o nel parco giochi per bambini.;FIT & FRÖHLICH;PALLEGGIARE E PALESTRARSI;;;;;;;;;
681a89d2c8c64552e950b28f;Car Sharing;;Autoverleih;;unbekannt;;Bahnhof Brixen, Mozartallee;3,90471E+11;info@carsharing.bz.it;https://www.carsharing.bz.it/de/;;;;1.139.007;4.642.372
;Circolo artistico S. Erardo;Circolo artistico S. Erardo;Ein lebendiger Treffpunkt für Kunst und Kultur, wo regelmäßig Ausstellungen, Workshops und Veranstaltungen organisiert werden, die lokale Künstler:innen fördern und Austausch ermöglichen. Ein Ort, der Inspiration und Gemeinschaft verbindet.;Un vivace punto d'incontro per l'arte e la cultura, dove mostre, workshop ed eventi valorizzano gli artisti locali e promuovono lo scambio di idee, sogni e opinioni. Un luogo in cui ispirazione e comunità si fondono.;BÜHNEN BILDER BÜCHER;PALCHI PITTURA PAROLE;;;;;;;;;
;Cusanus-Akademie;Accademia Cusanus;In der Cusanus-Akademie sind alle Menschen willkommen: wissensdurstige, weltoffene, werteorientierte. Unter dem Motto 'Bildung und Begegnung, Dialog und Erleben' wird in der Cusanus-Akademie gebildet, gekurst, diskutiert, spiritualisiert, gespeist und genächtigt.;Nell'Accademia Cusanus tutte le persone curiose, aperte al mondo e legate a dei valori sono benvenute. Seguendo il motto 'Educazione e Incontro, Dialogo ed Esperienza' l'Accademia offre un luogo in cui si può imparare, partecipare a dei corsi, discutere, vivere la spiritualità, mangiare e pernottare.;BREITE BILDUNG;FORMAZIONE FENOMENALE;;;;;;;;;
681a89d2c8c64552e950b27f;Dekadenz & Tschumpus;Dekadenz & Tschumpus;Seit 1980 lädt der Kleinkunst-Keller Dekadenz rund siebzigmal im Jahr zum Lauschen und Lachen ein – bei einem Getränk der Wahl. In den Sommermonaten bleibt die Dekadenz geschlossen und überlässt das Publikum dem Kultursommer im ehemaligen Gefängnis Tschumpus.;Fondato nel 1980 in una storica cantina, questo piccolo teatro apre le sue porte circa 70 volte all'anno con una selezione di concerti e spettacoli da godersi sorseggiando un bicchiere della propria bevanda preferita. Durante i mesi estivi, il Dekadenz chiude i battenti e invita il pubblico a partecipare al Kultursommer nell'ex carcere Tschumpus.;BÜHNEN BILDER BÜCHER;PALCHI PITTURA PAROLE;Obere Schutzengelgasse 3B;3,90473E+11;info@dekadenz.it;https://www.dekadenz.it/;;;;1.166.014;4.671.682
681a89d2c8c64552e950b29f;Diözesanmuseum Hofburg;;Krippensammlung, Domschatz, Kunst des Mittelalters, Renaissance, Barock, 19. und 20. Jh., Tagungen und Events;;unbekannt;;Hofburgplatz 2;39 0472 830505;info@hofburg.it;Museum | Hofburg Brixen;OKT - MAI- täglich 10.00 - 17.00, JUNI - SEPT täglich 10.00 - 18.30;;;1.165.328;467.149
681a89d2c8c64552e950b286;Mozart Muscle Beach / Don-Giuseppe-Franco-Park;Mozart Muscle Beach / Parco Don Giuseppe Franco;Pumpe und pimpe deinen Body for free! Ein gut bestückter Muskelpark für Muskelpakete oder jene, die es noch werden wollen. Verfeinere am Pumptrack deine Skills auf dem unmotorisierten Gefährt deiner Wahl, verausgabe dich an den Eisenstangen oder beim Teqball. ;Allena e rafforza il tuo corpo gratuitamente! Un parco calisthenics, ideale sia per chi è già muscoloso, sia per chi vuole diventarlo. Affina le tue abilità sulla pump track utilizzando un mezzo non motorizzato a scelta, allenati alle sbarre di ferro o divertiti con una partita a Teqball.;FIT & FRÖHLICH;PALLEGGIARE E PALESTRARSI;Mozartallee / Marconistrasse;;;;;;;1.165.734;4.672.223
681a89d2c8c64552e950b2a5;ELKI / Eltern-Kind-Zentrum und Pumuckl-Tauschmarkt;Elki / Centro Genitori Bimbi e Mercatino dello scambio Pumuckl;Treff für Eltern mit Babys und Kids zum Spielen, Austauschen und Zeitverbringen. Für bewusste Aktivitäten: Familientage, Kurse, Vorträge und spezielle Angebote für Schwangere. Für bewussten Konsum: ein Second-Hand-Tauschmarkt mit Kinderkleidern und vielem mehr.;Luogo d'incontro per genitori con bambini, dove poter giocare e trascorrere del tempo insieme. Uno spazio dedicato ad attività: corsi, conferenze, giornate in famiglia, iniziative per gestanti. Per promuovere un consumo responsabile è disponibile un mercatino dell'usato con vestiti per bambini e molto altro.;WACHSEN & WIRKEN;CRESCERE IN COMUNE;Hofgasse 4, Brixen, ;39 0472 802134;brixen@elki.bz.it;Brixen - Eltern-Kind-Zentren (Elkis);;;;116.558;4.671.558
;Essbare Stadt;Città edibile;Der Kreisverkehr schmeckt köstlich, vom Flussufer kommt mein Obst und das Salatgewürz hole ich mir auf dem Domplatz. Eine Stadt, die ihre Bewohner:innen gemeinsam be-garteln, die für den kleinen Hunger zwischendurch immer eine Lösung hat, die blüht, die grünt, die wächst.;La rotonda ha un sapore delizioso, la mia frutta viene dalla riva del fiume e il condimento per l'insalata lo prendo da piazza Duomo. Una città che i suoi abitanti coltivano insieme, che ha sempre una soluzione per i buchi nello stomaco, che fiorisce, verdeggia e cresce.;WÜNSCHEN WIRKT WUNDER;SOGNI E SPERANZE;;;;;;;;;
681a89d2c8c64552e950b296;Fachbibliothek Eine Welt;;Das Medienangebot der Fachbibliothek Eine Welt umfasst Bilderbücher zu unterschiedlichen Themen, Jugend- und Erwachsenenliteratur und ein vielfältiges Angebot an Spiel- und Dokumentarfilmen vorrangig in deutscher Sprache. Auch Bücher in leichte und einfache Sprache sowie Fachzeitschriften.;;unbekannt;;Vintlerweg 34;39 0472 833 950;biblioinfo@oew.org;Fachbibliothek Eine Welt - OEW;Mo-Fr 9.00 - 12.30, Mo und Mi 14.00 - 16.30;;;1.165.977;4.670.783
681a89d2c8c64552e950b291;FARO Flohmarkt;;Flohmarkt, Second Hand;;unbekannt;;Konrad Lechner Strasse, 5;;;;Sonntag;;;1.164.748;4.673.098
;Flohmärkte;Mercatini delle pulci;Für diejenigen, die schon alles haben, bieten sie das Vergnügen, sich im Unnützen zu verlieren und zwischen dem Krempel kuriose Gegenstände zu entdecken. Wer etwas braucht, wird sicherlich fündig, und wer zu viel hat, sollte ein paar Kisten packen und mit einem Stand teilnehmen!;Per chi già ha tutto, offrono il piacere di perdersi nell'inutile e scoprire, tra le cianfrusaglie, oggetti curiosi. Chi invece è alla ricerca di qualcosa di preciso, troverà sicuramente ciò di cui ha bisogno, mentre chi ha troppo prepari qualche scatolone e partecipi con una bancarella!;REUSE & REPAIR;RIPARARE E RECUPERARE;;;;;;;;;
681a89d2c8c64552e950b289;Flussterassen;;Flusszugang mit Bänken, Liegeflächen;;unbekannt;;Linker Eisackdamm;;;;;;;116.544;467.275
681a89d2c8c64552e950b2a7;Food sharing Rebellion;;;;unbekannt;;Altenmarktgasse, 22, Brixen;39 3490565097;Rebellion.brixen@yahoo.com;Nachhaltiger Lifestyle & Mode - Rebellion - Rebellion - Brixen;Mo bis Fr 9.00 bis 18.30 Uhr Sa 9.00 bis 17.00 Uhr;;;1.165.673;467.185
681a89d2c8c64552e950b2a8;Food sharing Rex;;;;unbekannt;;St.Josef-Strasse, 1, Brixen;39 3281166771;info@rex-bx.it;REX - Material und Dinge - Material und Dinge (rex-bx.it);Mo: 14-18, Di: 9-12,14-18, Mi: 14-18, Do: geschlossen, Fr: 14-18, Sa: 9-12;;;1.166.258;4.671.936
;Freitagsalon;Salotto del venerdì;Ausnahmslos jeden letzten Freitag im Monat wird dieses Forum (un)gepflegter Debattenkultur eröffnet. Wechselnde Gäste bringen ihr Thema ein und treten darüber mit der kritischen Bürger:innenschaft in Dialog. Austragungsort ist die Stadtbibliothek Brixen (C3).;Immancabilmente ogni ultimo venerdì del mese viene aperto questo forum di cultura del dibattito convenzionale (e non). Relatori sempre diversi presentano i loro temi e dialogano con il pubblico critico. L'attuale sede è la Biblioteca Civica di Bressanone.;SPIELEN SPRECHEN SPEISEN;SERATE IN SOCIETÀ;;;;;;;;;
;Freiwilligendienst Caritas;volontariato caritas;Ob Selbstverwirklichung, Altruismus oder persönliche Weiterentwicklung – bei der Caritas können sich Menschen jeden Alters sinnvoll einbringen. Wer Zeit verschenken möchte, findet hier garantiert eine begeisternde Aufgabe – bei der Caritas selbst oder ihren Partnern. Mach mit und schenke Sinn!;Che si tratti di autorealizzazione, altruismo o sviluppo personale, persone di tutte le età possono offrire un contributo significativo alla Caritas. Chi desidera donare il proprio tempo troverà qui delle attività stimolanti, sia con la Caritas stessa, sia con i suoi partner. Partecipate e date un significato profondo al vostro impegno!;BÜRGER:IN BEWEGUNG;CITTADINANZA CRITICA;;;;;;;;;
681a89d2c8c64552e950b28c;Freizeitpark Fru(h)n;;Freizeitpark mit Grillplatz, Fußballfeld, Basketkorb, Volleyballnetz, Spielplatz, Zeltmöglichkeit. Vormerkung beim Tourismusverein Natz;;unbekannt;;Natz, Frun;;info@natz-schabs.info;;auf Vormerkung;;;1.168.882;4.675.777
681a89d2c8c64552e950b290;fundus punkt;fundus punto;Dich schick kleiden und ein Krankenhaus zum Lächeln bringen? Das ist einfach in der liebevoll geführten Second-Hand-Boutique des Vereins Comedicus. Außerdem kannst du dort zum Karneval das Kostüm deiner Träume finden und nochmal lächeln.;Vestirsi chic e far sorridere un intero ospedale? È possibile grazie alla boutique di seconda mano curata amorevolmente dall'associazione Comedicus. Durante il carnevale, qui puoi trovare il travestimento dei tuoi sogni e continuare a regalare sorrisi.;REUSE & REPAIR;RIPARARE E RECUPERARE;Runggadgasse, 14/B;;;;Mo-Fr 9.00 - 12.00, 15.00 - 18.00;;;1.165.905;4.671.386
681a89d2c8c64552e950b292;Gumperermarkt;;;;unbekannt;;Albuingasse;;;;16. und 30.09 sowie 14.10.2023, 8.00 - 17.00;;;1.165.562;467.161
681a89d2c8c64552e950b27c;HdS - Haus der Solidarität 'Luis Lintner' ;CdS - Casa della Solidarietà 'Luis Lintner';Hilft Menschen in Notsituationen, gibt Unterkunft und begleitet im Alltag. Es bietet verschiedenen Organisationen Arbeitsräume und Entfaltungsmöglichkeiten, ist ein Nest für neue Ideen und Heimat des kunterbunten zugluft-Festes.;Sostiene le persone in situazioni d'emergenza, offrendo loro un alloggio e accompagnandole nella gestione della vita quotidiana. Mette a disposizione spazi lavorativi e offre occasioni di crescita a diverse organizzazioni. Inoltre, è un'incubatrice di nuove idee nonché sede del festival multiculturale zugluft.;GEMEINSCHAFTLICH GERECHT;SOCIALI E SOLIDALI;Vintlerweg 34, 39042 Brixen;0472 830 441;hds@hds.bz.it;http://www.hds.bz.it/;;caring for people sharing and public goods;Caring for nature caring for people democratization sharing and public goods redistribution;1.166.351;4.670.702
;Haus Maria Hueber / Domus und Essensausgabe;Haus Maria Hueber / Domus e Distribuzione pasti;Bietet Menschen in Notsituationen jeden Tag ein warmes Mittagessen, die Möglichkeit zu duschen und ihre persönliche Wäsche zu waschen, sowie Berater:innen, die zuhören und weiterhelfen. Offre alle persone in situazioni di emergenza un pasto caldo quotidiano, la possibilità di fare una doccia, lavare la propria biancheria e di rivolgersi a consulenti pronti ad ascoltare e fornire supporto. Sono disponibili anche alcuni piccoli appartamenti come alloggi temporanei.;Offre alle persone in situazioni di emergenza un pasto caldo quotidiano, la possibilità di fare una doccia, lavare la propria biancheria e di rivolgersi a consulenti pronti ad ascoltare e fornire supporto. Sono disponibili anche alcuni piccoli appartamenti come alloggi temporanei.;HELFENDE HÄNDE;AIUTO ATTIVO;;;;;;;;;
;heimat Brixen;heimat Bressanone;Einmischen, mitmischen, aufmischen: Ohne Bewegung lebt keine Demokratie, und die brauchen wir, um uns heimisch zu fühlen! Ob Bücherwürmer oder Kulturliebende – bei heimat BBP findet mensch eine spannende Community, spannende Gespräche, spannende Vorträge.;Immischiarsi, immedesimarsi, rimescolarsi: senza movimento non c'è democrazia e noi ne abbiamo bisogno per sentirci a casa! Che siate topi da biblioteca o amanti della cultura, all'heimat BBP troverete una comunità appassionata, parteciperete a discussioni coinvolgenti e ascolterete relatori stimolanti.;BÜRGER:IN BEWEGUNG;CITTADINANZA CRITICA;;;;;;;;;
681a89d2c8c64552e950b284;Herrengarten;;Gepflegter Garten;;unbekannt;;Kassianstrasse / Hofburgplatz;;;;tagsüber;;;1.165.564;4.671.492
681a89d2c8c64552e950b28d;Hundezone;;Hundezone;;unbekannt;;Plosestrasse / St. Josef Strasse;;;;8.00 - 12.30, 15.00 - 20.00;;;116.619;4.671.079
681a89d2c8c64552e950b2ae;HYLA Umweltgruppe Eisacktal;;Dachverband für Natur-und Umweltschutz, Information und Action;;unbekannt;;;39 3247450390;hyla@ug-eisacktal.com;umweltgruppeeisacktal.wordpress.com;Offizielle Bürozeiten: MO bis DO 9-12 und 14-16 Uhr | FR 9-12 Uhr;;;0;0
;Interkulturelles Abendessen;Cena interculturale;Bewohner:innen des HdS – Haus der Solidarität 'Luis Lintner' (H1) kochen auf und laden ein, an ihrem Tisch Platz zu nehmen. Die Gerichte stammen meist aus der Region, in denen die Köch:innen aufgewachsen sind – von afghanisch bis zypriotisch. Einmal im Monat bei freier Spende.;Gli abitanti della Casa della Solidarietà (CdS) 'Luis Lintner' (H1) cucinano e invitano gli ospiti a condividere la loro tavola. Dall'Afghanistan allo Zimbabwe, i piatti serviti riflettono le tradizioni culinarie dei luoghi in cui le cuoche e i cuochi sono cresciuti. Un appuntamento mensile, con offerta libera.;SPIELEN SPRECHEN SPEISEN;SERATE IN SOCIETÀ;;;;;;;;;
;Jukas / Bildungshaus;Jukas / Centro di formazione;Bildung inspiriert. Bildung für Erwachsene, Kinder und Jugendliche in verschiedenen Formaten: Kurse, Seminare, Werkstätten, Erlebniswochen und Festivals. Von Musik und Kunst zu Technik und Handarbeit, vom Erzählen in Wort und Bild zu Schönheit innen und außen.;L'educazione ispira. Viene offerta formazione per adulti, bambini e giovani in diverse modalità: corsi, seminari, laboratori, settimane comunitarie e festival. Dalla musica all'arte, dalla tecnologia all'artigianato, dalla narrazione con parole e immagini alla scoperta della bellezza interiore ed esteriore.;BREITE BILDUNG;FORMAZIONE FENOMENALE;;;;;;;;;
681a89d2c8c64552e950b2ac;Karlspromenade;Karlspromenade;Otto von Guggenberg ließ sie für seinen Patienten und Freund Karl, den letzten Habsburger Kaiser, errichten. Das Ergebnis: ein bequemer Spaziergang, der es ermöglicht, sich für eine Stunde über die alltäglichen Probleme zu erheben – ohne dabei die Stadt aus den Augen zu verlieren.;Otto von Guggenberg la fece realizzare per il suo paziente e amico, l'ultimo imperatore asburgico Karl. Una comoda passeggiata per elevarsi un'oretta sopra i problemi quotidiani, senza comunque perdere di vista la città.;GEMÜTLICH GRÜN;VERDE VIVIBILE;Karlspromenade;;;;;;;1.166.873;4.671.167
;Kass & Connection / Jugendzentren;Kass & Connection / Centri di cultura giovanile;Zwei Orte für Jugendliche, um abzuhängen, zu lachen und sich zu unterhalten. Musik, Tanz, Theater, Murales und Upcycling. Nachhaltig, vielfältig und kreativ. Young Action!;Due luoghi per i giovani, per stancarsi, ridere e passare del tempo insieme. Musica, danza, teatro, murales e upcycling. Sostenibile, vario e creativo. Young Action!;WACHSEN & WIRKEN;CRESCERE IN COMUNE;;;;;;;;;
681a89d2c8c64552e950b28e;Kastanienhain;;Öffentlich zugänglicher Kastanienhain (Almende), schattige Bänke;;unbekannt;;Vahrn, Seiserleite;;;;;;;1.165.553;4.673.452
681a89d2c8c64552e950b2b6;Kleiderkammer Kolping ;;;;unbekannt;;;;;;;;;0;0
681a89d2c8c64552e950b285;Klettergarten Mahr;;Klettergarten mit 43 Routen im Schwierigkeitsgrad zwischen 4a und 8b;;unbekannt;;Fasserstrasse - Mahr;;;https://www.thecrag.com/de/klettern/italy/alto-adige/val-disarco/area/3304462554;;;;1.164.037;4.669.587
681a89d2c8c64552e950b29c;Kunstkreis St. Erhard;;Ausstellungen, Kunstaktionen, Workshops...;;unbekannt;;Runggadgasse 19;39 0472 802288;circolo.erardo@gmail.com;Circolo Artistico S. Erardo (wordpress.com);;;;1.165.668;4.671.325
681a89d2c8c64552e950b281;Lido / Naherholungsgebiet Fischzuchtteich;Lido / Parco Laghetto;Ein Universum im Kleinformat, nicht nur für die Kleinsten: Ziegen, Flusskrebse, Ballspiele und schattige Bäume. Der Lidopark bietet einen spannenden Naherholungsort. Neben dem öffentlichen Spielplatz führt der VKE - Verein für Kinderspielplätze und Erholung das SpielHaus.;Un universo in scala ridotta, non solo per i più piccoli: capre, gamberi di fiume, giochi con la palla e alberi ombrosi. Il Parco Lido offre un'emozionante area ricreativa locale. Oltre al parco giochi pubblico, il VKE - Associazione campi gioco e ricreazione gestisce la CasaGioco.;FIT & FRÖHLICH;PALLEGGIARE E PALESTRARSI;Fischzuchtweg, 17/A;;;;tagsüber;;;1.165.547;4.670.693
;Magdas Garten ;Il giardino di Magda;Magdalenas Herzenswunsch geht in Erfüllung: Der Hofburggarten ist eine Fläche, die allen Menschen offensteht. Jede:r darf hier sein, spazieren, picknicken, Yoga machen, die Mittagspause verbringen und sich erholen. Das grüne Herzstück der Stadt – Eintritt frei!;Il desiderio nel cuore di Magdalena si realizza: il giardino vescovile è ora un'area aperta a tutti. Chiunque può entrarci, fare una passeggiata, un picnic, praticare yoga o semplicemente trascorrere la pausa pranzo in totale relax. Il cuore verde della città con ingresso gratuito!;WÜNSCHEN WIRKT WUNDER;SOGNI E SPERANZE;;;;;;;;;
;Mahr / Klettergarten ;Mahr / Palestra di roccia;Man könnte glauben, der Klettergarten an der Mahr sei unerschöpflich. Hier gibt es spannende Plattenkletterei in den Schwierigkeitsgraden 4 bis 8b zu entdecken! Auch ein Trainingsklettersteig ist vorhanden, für eine schnelle und sichere Kletterrunde, wenn's mal ohne Seil sein soll.;La palestra di roccia sopra La Mara sembra davvero inesauribile! Qui potrete cimentarvi in emozionanti arrampicate d'aderenza con gradi di difficoltà dal 4 all'8b. Per chi cerca un rapido allenamento senza corda è disponibile anche una via ferrata.;FIT & FRÖHLICH;PALLEGGIARE E PALESTRARSI;;;;;;;;;
;Montessorischulen / Scuole Montessori;Montessorischulen / Scuole Montessori;R-E-S-P-E-C-T, tell me what it means to Mary! Rücksicht nehmen, Erfahrungsräume öffnen, Selbstwirksamkeit fördern, Potenziale erkennen, Empathie entwickeln, Kreativität leben, Toleranz üben. Die Montessori-Schule war Magdalenas Schule und ihre Werte waren Magdas Werte!;R-E-S-P-E-C-T, tell me what it means to Mary! Riguardo verso gli altri, Empatia e comunità, Sviluppo individuale, Potenzialità riconosciute, Esplorazione dell'ambiente, Collaborazione e Creatività, Tolleranza e pluralismo. La scuola Montessori è stata la scuola di Magdalena e i suoi valori erano i valori di Magda!;WACHSEN & WIRKEN;CRESCERE IN COMUNE;;;;;;;;;
681a89d2c8c64552e950b295;Musikschule;;;;unbekannt;;Am Priel, 7a;39 0472 869192;musikschuldirektion.brixen@schule.suedtirol.it;Musikschuldirektion Brixen - Vintl/Mühlbach | Musikschulen | Autonome Provinz Bozen - Südtirol;Mo-Fr 10.00 - 12.00, 14.00 - 17.00;;;1.165.158;467.202
;OEW / Organisation für Eine solidarische Welt;OEW / Organizzazione per Un mondo solidale;Kann man eine solidarische Welt organisieren? Ja! Mit Geschick werfen sich Haupt- und Ehrenamtliche in Projekte – ob Bildungsüberfälle oder Themenwochen, in Schulen und auf Straßen. Was nachhaltig, sozial und fair ist, findet hier ein Megafon.;È possibile organizzare un mondo solidale? Sì! Personale a tempo pieno e volontari collaborano con entusiasmo e competenza a svariati progetti: dalla guerriglia educativa, alle settimane a tema, fino ad attività nelle scuole e nelle strade. Tutto ciò che è sostenibile, sociale e giusto trova qui il suo megafono.;BÜRGER:IN BEWEGUNG;CITTADINANZA CRITICA;;;;;;;;;
681a89d2c8c64552e950b2ab;Park Lido;;Öffentlicher Park mit Spielplatz;;unbekannt;;Fischzuchtweg, 24;;;;;;;1.165.309;4.670.704
681a89d2c8c64552e950b288;Park Rosslauf;;Park mit Spielplatz;;unbekannt;;Brennerstrasse 21 / Am Rosslauf;;;;;;;11.654.031.872.749.300;46.722.321.799.925.000
681a89d2c8c64552e950b29e;Pharmaziemuseum;;Dauerausstellung, Events;;unbekannt;;Adlerbrückengasse 4;39 0472 209112;mail@pharmaziemuseum.it;Pharmaziemuseum - Das Pharmaziemuseum;Ganzjährig Di + Mi 14.00 - 18.00, Sa 11.00 - 16.00. ;;;1.165.576;4.671.662
681a89d2c8c64552e950b2b4;Pluribar Mensa;;Sie gibt 2-4 Menschen in schwierigen Lebenssituationen eine Arbeitsmöglichkeit. Gleichzeitig ist sie eine leistbare Mensa für Arbeitstätige rund um das Schulzentrum im Süden von Brixen;;unbekannt;;Schwesternau 1, Brixen;39 3280158000    39 3663413619;pluribar@bcoop.bz;;Mo-Fr: 07:30- 15;;;1.165.793;4.671.025
;PubQuiz;PubQuiz;Im Astra (C1) versammeln sich monatlich Spielwütige zum fröhlichen Quizzen. Die Fragen werden liebevoll vom Moderatoren-Duo zusammengestellt und reichen von Pop bis Politik. Wer ohne Gruppe kommt, findet eine. Gesprochen wird Englisch. Drinks gibt es natürlich auch.;All'Astra (C1) giocatori accaniti si ritrovano mensilmente per partecipare a divertenti quiz. Le domande, preparate con cura e passione dal duo di moderatori, spaziano dalla cultura pop alla politica. Chi arriva senza gruppo, ne può trovare uno sul posto. Il gioco si svolge in inglese e naturalmente non mancano i drinks.;SPIELEN SPRECHEN SPEISEN;SERATE IN SOCIETÀ;;;;;;;;;
681a89d2c8c64552e950b2ad;Rappanlagen;Giardini Rapp;Das letzte Stück Land zwischen Rienz und Eisack. Für viele ein 'Energiepunkt'. Für alle, trotz des ständigen Hin und Her, ein geschätzter Ort der Ruhe, eingerahmt vom Rauschen der beiden Flüsse und den hohen, 1884 gepflanzten Bäumen.;L'ultimo lembo di terra tra Rienza e Isarco. Per molti un 'punto energetico'. Per tutti, nonostante il continuo viavai, un prezioso luogo di tranquillità, incorniciato dallo scrosciare dei due fiumi e dalla melodia di foglie degli alti e maestosi alberi che risalgono al 1884.;GEMÜTLICH GRÜN;VERDE VIVIBILE;;;;;;;;11.660.923.051.242.800;4.671.511.744.712.830
681a89d2c8c64552e950b2a2;RAPPLfest;;Musikfest des Jugendzentrums kass mit Kinderflohmarkt, Workshops, Markt und vielen Bands;;unbekannt;;Rappanlagen;;;RAPPLfest 2023 - Jugendzentrum Kass (juze.it);;;;1.165.784;4.671.599
681a89d2c8c64552e950b2a6;Repair Café;Repair Café;Was macht man mit einem Stuhl, der nur noch wackelt? Mit einem Toaster, der für nichts mehr brennt? Mit einem Pulli, den Motten zum Anbeißen fanden? Wegwerfen? Konnsch dor vorstellen! Komm ins Repair Café und alles wird gut! Einmal im Monat im Kolping!;Cosa fare di una sedia con la gamba rotta, un tostapane che non si accende o un maglione mangiato dalle tarme? Usa e getta? Figuriamoci! Fate un salto al Repair Café e tutto tornerà come nuovo! Una volta al mese al Kolping!;REUSE & REPAIR;RIPARARE E RECUPERARE;Fallmerayerstraße 4B, Brixen;39 0472 208205;repaircafe@oew.org;Repair Cafe - OEW;Jeden zweiten Donnerstag im Monat von 18-20:30 Uhr (Ferien im Juli und August);;;1.165.461;4.671.401
681a89d2c8c64552e950b2a9;REX / Material und Dinge;REX / Materiali e cose;Wenn ich sterbe, möchte ich ins REX, denn dort erhält alles die Chance auf ein zweites Leben. Möbel, Geräte, Spielzeug, Sportartikel, Geschirr, Musikinstrumente – und im Food-Sharing-Projekt sogar abgelaufene Lebensmittel.;Quando morirò, vorrei finire al REX. Lì tutto ottiene la possibilità di avere una seconda vita: mobili, elettrodomestici, giocattoli, articoli sportivi, stoviglie, strumenti musicali e, grazie al progetto di recupero alimentare, anche cibo invenduto.;REUSE & REPAIR;RIPARARE E RECUPERARE;St.Josef-Strasse, 1, Brixen;39 3281166771;info@rex-bx.it;REX - Material und Dinge - Material und Dinge (rex-bx.it);Mo: 14-18, Di: 9-12,14-18, Mi: 14-18, Do: geschlossen, Fr: 14-18, Sa: 9-12;;;1.166.492;4.681.314
681a89d2c8c64552e950b283;Schrebergärten;;55 Schrebergärten, 9740mÂ²;;unbekannt;;Franz-von-Unterrichter-Weg;;;;;;;1.165.067;4.669.605
681a89d2c8c64552e950b280;Seeburg;;Park mit Wasserfläche - Hunde, Alkohol und Rauchen nicht zugelassen;;unbekannt;;Seeburgerstrasse;;;;;;;1.166.724;4.671.978
681a89d2c8c64552e950b2b2;Seminarbibliothrk;;Die spätbarocke Seminarbibliothek gehört zu den Sehenswürdigkeiten Brixens. Die Decke wird von zwei Säulen getragen, die die Schrift und die Tradition versinnbildlichen sollen. In diesem Raum sind immer noch über 20.000 Druckschriften aufgestellt.;;unbekannt;;Seminarplatz 4, Brixen;39 0472271011;info@priesterseminar.it;Seminarbibliothek (priesterseminar.it);Pforte: Mo-Fr: 07:30-19:45, Sa: 07:30-17:30;;;1.165.947;4.671.546
681a89d2c8c64552e950b27d;Spielhaus VKE;;Das VKE-SpielHaus ist ein Spiel-und Kinderkulturzentrum im Stadtviertel.[NEWLINE]Hier finden ausserschulische Tätigkeiten statt, die auf Spiel und Spielkultur basieren.[NEWLINE]Die 5 VKE-Spielhäuser (Stand 2020) in Bozen (2 Einrichtungen), Brixen, St. Ulrich und Meran sind zugleich Treffpunkte für Familien und Kinderkulturzentren im Stadtviertel.[NEWLINE]In den VKE-SpielHäusern werden Spiel und Spielkultur als Mittel zur Beziehungsarbeit und zum Lernen (Lebenskunst) benutzt.[NEWLINE]Die VKE-SpielHäuser sind ganzjährig nachmittags von Montag bis Freitag geöffnet.[NEWLINE]Ausserdem stehen sie auch ausserhalb der Öffnungszeiten für Kinderfeste nach Vormerkung zur Verfügung.[NEWLINE]https://www.vke.it/de/spielhaus/ein-vke-spielhaus-was-ist-das ;;unbekannt;;Fischzuchtweg, 17/A;0472-837737 346 3912535;brixen@vke.it;;;;;1.165.609;4.670.701
681a89d2c8c64552e950b287;Spitalpark;;Ruhiger Park mit alten Bäumen und Blick auf das historische Sanatorium;;unbekannt;;Dantestrasse;;;;;;;1.164.893;467.226
;Sprachentreffs;Incontri linguistici;Vertiefe deine Sprachkenntnisse in angenehmer Atmosphäre in einem Lokal. Konversation in Englisch, Spanisch, Französisch oder Italienisch an verschiedenen Tischen. Setz dich ungezwungen dazu und plaudere mit in aperitivo language. Cheers, Salud, Santé, Salute!;Approfondisci le tue conoscenze linguistiche nell'atmosfera accogliente di un bar brissinese. Conversazioni in inglese, spagnolo, francese o italiano si svolgono ai tavoli dedicati alle diverse lingue straniere. Siediti liberamente e partecipa alla conversazione nella lingua dell'aperitivo. Cheers, Salud, Santé, Salute!;BREITE BILDUNG;FORMAZIONE FENOMENALE;;;;;;;;;
681a89d2c8c64552e950b29d;StadtGalerie;;Ausstellungen zeitgenössischer Kunst;;unbekannt;;Große Lauben 5;39 0472 062140;stadtgalerie@brixen.it;https://www.brixen.it/de/kultur/stadtgalerie-brixen;Di-Fr 15.30 - 19.00, Sa 10.00 - 13.00;;;1.165.192;4.671.655
681a89d2c8c64552e950b2af;Terra Institute;;Strategien für gesellschaftlichen Wandel, nachhaltige Unternehmensberatung;;unbekannt;;Albuingasse 2, Brixen;39 0472970484.;office@terra-institute.eu;homepage - Terra Institute (terra-institute.eu);;;;1.165.806;4.671.584
681a89d2c8c64552e950b294;TPZ / Theaterpädagogisches Zentrum ;TPZ / Centro pedagogico teatrale;Kindertheater, Schreibwerkstatt, Sozialgenossenschaft und das Kompetenzzentrum für Theaterpädagogik. Lustig oder ernst, verspielt oder vernünftig, laut oder leise, traditionell oder experimentell: Theater in all seinen Facetten. Echt Toll, echt Profis, echt Zuschauer:innen.;Teatro per bambini, laboratorio di scrittura, cooperativa sociale e centro di competenza per la pedagogia teatrale. Divertente o serio, giocoso o riflessivo, chiassoso o silenzioso, tradizionale o sperimentale: teatro in tutte le sue sfaccettature. Travolgente, Professionale, Zampillante.;WACHSEN & WIRKEN;CRESCERE IN COMUNE;Köstlanerstrasse 28;333 2608102;kontakt@tpz-brixen.org;Theaterpädagogisches Zentrum Brixen (tpz-brixen.org);;;;11.666.640.097.300.500;46.715.541.037.775.400
681a89d2c8c64552e950b28b;Tschötscher Heide;;Festplatz, viel ebene Fläche;;unbekannt;;Feldthurnerstrasse;;;;;;;1.164.295;4.670.428
681a89d2c8c64552e950b27e;Tschumpus;;Veranstaltungsort - In den Sommermonaten vom Verein Theakos bespielt;;unbekannt;;Domplatz 3;3,93489E+11;info@tschumpus.com;https://www.tschumpus.com/;;;;1.165.752;4.671.543
;Übernachtungsstätte;Struttura di acco-glienza temporanea;Niederschwellige Einrichtung für Menschen, die vorübergehend von Wohnungslosigkeit betroffen sind. Sie bietet Schlafplätze, Waschmöglichkeiten sowie einen Gemeinschaftsraum und ist von Spätherbst bis Frühling geöffnet.;Struttura a bassa soglia dedicata a persone temporaneamente senzatetto. Offre posti letto, bagni, una sala comune ed è aperta da fine autunno a primavera.;HELFENDE HÄNDE;AIUTO ATTIVO;;;;;;;;;
681a89d2c8c64552e950b2b0;Universitätsbibliothek;;;;unbekannt;;Regensburgerallee, 16, Brixen;39 0472012300;library@unibz.it;Library / Free University of Bozen-Bolzano (unibz.it);Mo-Fr: 08-23, Sa:09-17 (Eintritt nnur mit Bibliotheks-Ausweis);;;116.539;4.671.528
681a89d2c8c64552e950b2a1;UpCon Upcycling Convention;;Convention Upcycling und Sharing Economy;;unbekannt;;Astra: Romstrasse 11;39 0472 275577;info@astrabx.com;Upcycling Convention 2023 - ASTRA Brixen (astrabx.com);-;;;1.164.979;4.671.646
;VHS;VolksHochSchule;Alles Wissen dem Volk! Macht das Leben in Brixen attraktiver, kreativer, vielfältiger und lebenswerter. Weiterbildung auf höchstem Niveau in Sprachen, Kultur & Gesellschaft, Beruf, EDV & Multimedia, Gesundheit sowie Hobby & Freizeit.;Sapere al popolo! Contribuisce a rendere la vita a Bressanone più attraente, creativa, varia e vivibile. Offre formazione continua di altissimo livello nei settori della cultura e della società, ma anche linguistica, professionale, informatica e multimediale, della salute, così come per hobby e tempo libero.;BREITE BILDUNG;FORMAZIONE FENOMENALE;;;;;;;;;
681a89d2c8c64552e950b29b;Vintlerhof Biosozialhof;Fattoria bio-sociale;Leben und Lebensmittel. Am Vintlerhof begegnen sich Menschen, Tiere und Pflanzen, alles wächst und kooperiert. Hofladen, Spieletreff, Gästezimmer, Arbeitsintegration, tiergestützte Interventionen, Waldkindergarten und -kita: Eine grüne Chance!;Vita e viveri. Il Vintlerhof è un luogo d'incontro tra persone, animali e piante, in cui tutto cresce e collabora. Punto di vendita durante il giorno e la sera ritrovo ludico. Offre inoltre alloggi, promuove progetti di integrazione lavorativa, interventi assistiti con animali, una scuola materna nel bosco e un asilo nido.;GEMEINSCHAFTLICH GERECHT;SOCIALI E SOLIDALI;Vintlerweg 22;373 8372846;info@vintlerhof.it;https://www.vintlerhof.it/;;;;1.166.167;4.670.601
;Vinzenzverein;comunità vincenziana;Hilft als Teil der weltweiten Vinzenzgemeinschaft Menschen in finanziellen Notlagen schnell und unbürokratisch. Zudem betreut er die Kleiderkammer, wo Kleidung, Decken und vieles mehr abgegeben und kostenlos weiterverteilt werden.;Fa parte della comunità vincenziana mondiale e offre un aiuto rapido e a bassa soglia a persone in difficoltà finanziarie. Inoltre, gestisce la Kleiderkammer, dove è possibile donare abiti, coperte e altri articoli, che vengono poi distribuiti gratuitamente.;HELFENDE HÄNDE;AIUTO ATTIVO;;;;;;;;;
681a89d2c8c64552e950b28a;Zur Wasserschöpfe;Lungofiume;Ein kleines Stück Großstadt am Eisack. Wo der kühle Fluss die Alltagswelt ausblendet, wo unter der Sonne und auf dem Grill das Fleisch brutzelt. Hier finden Lese- und Wasserratten ihr Biotop, Familien und Freundeskreise feiern fröhlich. Fantastisch.;Un piccolo angolo di metropoli sull'Isarco, dove il fresco fiume offre riparo dalla quotidianità. Qui trovano il loro habitat lettori e amanti dell'acqua, mentre sotto il sole e sulla griglia sfrigola la carne, e famiglie e allegre combriccole festeggiano. Fantastico.;GEMÜTLICH GRÜN;VERDE VIVIBILE;Vahrn, Linker Eisackdamm;;;;;;;1.165.381;4.673.098
;Weltladen;Bottega del mondo;Lädt in ansprechendem Ambiente ein, fair gehandelte Produkte zu entdecken, die internationalen Produzent:innen gerechte Arbeitsbedingungen garantieren. Ob Bananen, Kaffee, Olivenöl, Müsli, Bekleidung, Geschirr und mehr – shoppe guten Gewissens hemmungslos!;In un ambiente accogliente si scoprono prodotti equosolidali che garantiscono condizioni di lavoro giuste a produttori di tutto il mondo. Banane, caffè, cioccolato, olio d'oliva, sughi, abbigliamento, stoviglie e molto altro ancora: shopping sfrenato, ma responsabile!;GEMEINSCHAFTLICH GERECHT;SOCIALI E SOLIDALI;;;;;;;;;
681a89d2c8c64552e950b2a3;Women's run;;"Benefizrennen ""Frauen laufen für Frauen""";;unbekannt;;Altstadt Brixen;;start@womensrun.it;Women's run Brixen - Laufen für einen wohltätigen Zweck (brixenmarathon.com);;;;0;0
681a89d2c8c64552e950b29a;WunderBar;WunderBar;Im Werkstattladen der Kreativstätte für Menschen mit Beeinträchtigung lädt die WunderBAR mit köstlich-frischen Säften, Kaffee und Kuchen zu wunderbaren Begegnungen. Manchmal auch Veranstaltungsort.;Nel negozio-laboratorio del centro creativo per persone con disabilità, il WunderBAR invita a meravigliosi momenti di incontro offrendo deliziosi succhi freschi, caffè e torte. Occasionalmente funge anche da location per eventi speciali.;GEMEINSCHAFTLICH GERECHT;SOCIALI E SOLIDALI;Großer Graben 33;39 0472 820590;;https://www.bzgeisacktal.it/de/Sozialdienste/Einrichtung_Menschen_mit_Behinderung/WunderBAR;Mo, Di, Mi, Do, Fr 7:30 - 17:00, Sa 7.30 - 13.00;;;116.503;4.671.688
681a89d2c8c64552e950b293;Zeitbank Brixen;;Die Zeitbank ist eine soziale Einrichtung/Verein ohne Gewinnabsichten, deren Ziel der Austausch von Diensten und Tätigkeiten zwischen Personen ohne jegliche Geldvermittlung ist.;;unbekannt;;Stadtbibliothek (1. Stock), Domplatz 4;328 2433537;;Zeitbank Brixen - Zeit spenden, Zeit erhalten: Gemeinsam stark durch den Alltag.;Jeden ersten Mittwoch des Monats von 17.00 - 18.00, jeden dritten Donnerstag des Monats von 10.30 - 11.30;;;116.523;4.671.519
681a89d2c8c64552e950b2a0;Zugluft;;Alternatives Musikfest, Familienfest, Kinderfest;;unbekannt;;Vintlerweg 34;39 0472 830441;hds@hds.bz.it;https://www.zugluft.it/;1 Wochenende Ende Mai - Anfangs Juni;;;1.165.977;4.670.783
;zweisprachige Schule;Scuola bilingue;Dieses Jahr Mathematik in italiano, storia auf Deutsch und nächstes Jahr proprio al contrario. Eine Schule, in der es nicht Erst- und Zweitsprache gibt, sondern in der das 'Vorzeigemodell zweisprachige Region' voll und ganz gelebt wird und es keine Sprachbarrieren mehr gibt.;Quest'anno matematica auf Italienisch und Geschichte in tedesco e il prossimo anno andersrum. Una scuola dove non esistono una prima e una seconda lingua, ma si vive pienamente il 'modello di regione bilingue', in cui non ci sono più barriere linguistiche.;WÜNSCHEN WIRKT WUNDER;SOGNI E SPERANZE;;;;;;;;;
;;;;;;;;;;;;;;;
;;;;;;;;;;;;;;;
